HAWK-C                  
1 43799U 18099AT  26068.67261865  .00009431  00000+0  35663-3 0  9994
2 43799  97.4027 122.6817 0040363 277.4052  82.2601 15.26407167398720
STARLINK-35500          
1 66093U 25236H   26068.48067529  .00031251  00000+0  10640-2 0  9999
2 66093  53.1593 104.7689 0001160  74.6283 285.4846 15.30164158 22910
